{
  "links" : {
    "next" : "https://api.nasa.gov/neo/rest/v1/feed?start_date=2003-01-09&end_date=2003-01-09&detailed=true&api_key=t0TVs3DtDT2H8Oy2Zy8m2eVrNsAVKAexjcZXUckd",
    "prev" : "https://api.nasa.gov/neo/rest/v1/feed?start_date=2003-01-07&end_date=2003-01-07&detailed=true&api_key=t0TVs3DtDT2H8Oy2Zy8m2eVrNsAVKAexjcZXUckd",
    "self" : "https://api.nasa.gov/neo/rest/v1/feed?start_date=2003-01-08&end_date=2003-01-08&detailed=true&api_key=t0TVs3DtDT2H8Oy2Zy8m2eVrNsAVKAexjcZXUckd"
  },
  "element_count" : 6,
  "near_earth_objects" : {
    "2003-01-08" : [ {
      "links" : {
        "self" : "https://api.nasa.gov/neo/rest/v1/neo/3102762?api_key=t0TVs3DtDT2H8Oy2Zy8m2eVrNsAVKAexjcZXUckd"
      },
      "neo_reference_id" : "3102762",
      "name" : "(2002 AA29)",
      "nasa_jpl_url" : "http://ssd.jpl.nasa.gov/sbdb.cgi?sstr=3102762",
      "absolute_magnitude_h" : 24.1,
      "estimated_diameter" : {
        "kilometers" : {
          "estimated_diameter_min" : 0.040230458,
          "estimated_diameter_max" : 0.0899580388
        },
        "meters" : {
          "estimated_diameter_min" : 40.2304579834,
          "estimated_diameter_max" : 89.9580388169
        },
        "miles" : {
          "estimated_diameter_min" : 0.0249980399,
          "estimated_diameter_max" : 0.0558973165
        },
        "feet" : {
          "estimated_diameter_min" : 131.9896957704,
          "estimated_diameter_max" : 295.1379320721
        }
      },
      "is_potentially_hazardous_asteroid" : false,
      "close_approach_data" : [ {
        "close_approach_date" : "2003-01-08",
        "epoch_date_close_approach" : 1042012800000,
        "relative_velocity" : {
          "kilometers_per_second" : "5.8346965609",
          "kilometers_per_hour" : "21004.9076191971",
          "miles_per_hour" : "13051.6327370505"
        },
        "miss_distance" : {
          "astronomical" : "0.0391095714",
          "lunar" : "15.2136240005",
          "kilometers" : "5850709",
          "miles" : "3635462"
        },
        "orbiting_body" : "Earth"
      } ],
      "orbital_data" : {
        "orbit_id" : "21",
        "orbit_determination_date" : "2017-04-06 09:15:33",
        "orbit_uncertainty" : "0",
        "minimum_orbit_intersection" : ".012946",
        "jupiter_tisserand_invariant" : "6.101",
        "epoch_osculation" : "2458000.5",
        "eccentricity" : ".01296125557883429",
        "semi_major_axis" : ".9925462692961411",
        "inclination" : "10.74760091756775",
        "ascending_node_longitude" : "106.3717237836368",
        "orbital_period" : "361.1807278371487",
        "perihelion_distance" : ".9796816234259753",
        "perihelion_argument" : "101.6388260670472",
        "aphelion_distance" : "1.005410915166307",
        "perihelion_time" : "2458172.580482216544",
        "mean_anomaly" : "188.4820622381388",
        "mean_motion" : ".9967309223716914",
        "equinox" : "J2000"
      }
    }, {
      "links" : {
        "self" : "https://api.nasa.gov/neo/rest/v1/neo/3449126?api_key=t0TVs3DtDT2H8Oy2Zy8m2eVrNsAVKAexjcZXUckd"
      },
      "neo_reference_id" : "3449126",
      "name" : "(2009 EB1)",
      "nasa_jpl_url" : "http://ssd.jpl.nasa.gov/sbdb.cgi?sstr=3449126",
      "absolute_magnitude_h" : 20.7,
      "estimated_diameter" : {
        "kilometers" : {
          "estimated_diameter_min" : 0.1925550782,
          "estimated_diameter_max" : 0.4305662442
        },
        "meters" : {
          "estimated_diameter_min" : 192.5550781879,
          "estimated_diameter_max" : 430.566244241
        },
        "miles" : {
          "estimated_diameter_min" : 0.1196481415,
          "estimated_diameter_max" : 0.2675413778
        },
        "feet" : {
          "estimated_diameter_min" : 631.7424027221,
          "estimated_diameter_max" : 1412.6189567557
        }
      },
      "is_potentially_hazardous_asteroid" : false,
      "close_approach_data" : [ {
        "close_approach_date" : "2003-01-08",
        "epoch_date_close_approach" : 1042012800000,
        "relative_velocity" : {
          "kilometers_per_second" : "10.8168101657",
          "kilometers_per_hour" : "38940.5165964854",
          "miles_per_hour" : "24196.1226596329"
        },
        "miss_distance" : {
          "astronomical" : "0.4030585739",
          "lunar" : "156.7897949219",
          "kilometers" : "60296708",
          "miles" : "37466636"
        },
        "orbiting_body" : "Earth"
      } ],
      "orbital_data" : {
        "orbit_id" : "22",
        "orbit_determination_date" : "2017-01-05 08:17:55",
        "orbit_uncertainty" : "0",
        "minimum_orbit_intersection" : ".19921",
        "jupiter_tisserand_invariant" : "5.505",
        "epoch_osculation" : "2457800.5",
        "eccentricity" : ".4542990145694096",
        "semi_major_axis" : "1.10645686831139",
        "inclination" : "12.5071449323948",
        "ascending_node_longitude" : "151.3520242591488",
        "orbital_period" : "425.1088637963063",
        "perihelion_distance" : ".6037946033739703",
        "perihelion_argument" : "187.5287761591349",
        "aphelion_distance" : "1.609119133248809",
        "perihelion_time" : "2457642.479411602828",
        "mean_anomaly" : "133.8184560890267",
        "mean_motion" : ".8468419048832075",
        "equinox" : "J2000"
      }
    }, {
      "links" : {
        "self" : "https://api.nasa.gov/neo/rest/v1/neo/2481965?api_key=t0TVs3DtDT2H8Oy2Zy8m2eVrNsAVKAexjcZXUckd"
      },
      "neo_reference_id" : "2481965",
      "name" : "481965 (2009 EB1)",
      "nasa_jpl_url" : "http://ssd.jpl.nasa.gov/sbdb.cgi?sstr=2481965",
      "absolute_magnitude_h" : 20.7,
      "estimated_diameter" : {
        "kilometers" : {
          "estimated_diameter_min" : 0.1925550782,
          "estimated_diameter_max" : 0.4305662442
        },
        "meters" : {
          "estimated_diameter_min" : 192.5550781879,
          "estimated_diameter_max" : 430.566244241
        },
        "miles" : {
          "estimated_diameter_min" : 0.1196481415,
          "estimated_diameter_max" : 0.2675413778
        },
        "feet" : {
          "estimated_diameter_min" : 631.7424027221,
          "estimated_diameter_max" : 1412.6189567557
        }
      },
      "is_potentially_hazardous_asteroid" : false,
      "close_approach_data" : [ {
        "close_approach_date" : "2003-01-08",
        "epoch_date_close_approach" : 1042012800000,
        "relative_velocity" : {
          "kilometers_per_second" : "10.8168084704",
          "kilometers_per_hour" : "38940.5104935008",
          "miles_per_hour" : "24196.1188674756"
        },
        "miss_distance" : {
          "astronomical" : "0.4030584618",
          "lunar" : "156.7897491455",
          "kilometers" : "60296688",
          "miles" : "37466624"
        },
        "orbiting_body" : "Earth"
      } ],
      "orbital_data" : {
        "orbit_id" : "27",
        "orbit_determination_date" : "2017-04-06 09:18:46",
        "orbit_uncertainty" : "0",
        "minimum_orbit_intersection" : ".199193",
        "jupiter_tisserand_invariant" : "5.505",
        "epoch_osculation" : "2458000.5",
        "eccentricity" : ".4542151196479987",
        "semi_major_axis" : "1.106468414205424",
        "inclination" : "12.50599868027013",
        "ascending_node_longitude" : "151.3489757483543",
        "orbital_period" : "425.1155178397299",
        "perihelion_distance" : ".6038937310603758",
        "perihelion_argument" : "187.5342905867442",
        "aphelion_distance" : "1.609043097350472",
        "perihelion_time" : "2458067.603442279827",
        "mean_anomaly" : "303.1748825742813",
        "mean_motion" : ".8468286498441144",
        "equinox" : "J2000"
      }
    } ]
  }
}